CCSDS_OMM_VERS = 2.0
CREATION_DATE  = 
ORIGINATOR     = 

OBJECT_NAME    = STARLINK-36090
OBJECT_ID      = 2025-281H
CENTER_NAME    = EARTH
REF_FRAME      = TEME
TIME_SYSTEM    = UTC
MEAN_ELEMENT_THEORY = SGP/SGP4

EPOCH          = 2025-12-19T20:00:01.999008
MEAN_MOTION    = 15.75043291
ECCENTRICITY   = .000132
INCLINATION    = 43.0008
RA_OF_ASC_NODE = 78.8848
ARG_OF_PERICENTER = 278.3060
MEAN_ANOMALY   = 15.8481

EPHEMERIS_TYPE = 0
CLASSIFICATION_TYPE = U
NORAD_CAT_ID   = 66855
ELEMENT_SET_NO = 999
REV_AT_EPOCH   = 241
BSTAR          = .34915E-4
MEAN_MOTION_DOT = .489E-4
MEAN_MOTION_DDOT = 0

CCSDS_OMM_VERS = 2.0
CREATION_DATE  = 
ORIGINATOR     = 

OBJECT_NAME    = STARLINK-36072
OBJECT_ID      = 2025-281J
CENTER_NAME    = EARTH
REF_FRAME      = TEME
TIME_SYSTEM    = UTC
MEAN_ELEMENT_THEORY = SGP/SGP4

EPOCH          = 2025-12-19T20:00:01.999008
MEAN_MOTION    = 15.75035231
ECCENTRICITY   = .0001646
INCLINATION    = 43.0007
RA_OF_ASC_NODE = 78.8801
ARG_OF_PERICENTER = 274.4091
MEAN_ANOMALY   = 21.6635

EPHEMERIS_TYPE = 0
CLASSIFICATION_TYPE = U
NORAD_CAT_ID   = 66856
ELEMENT_SET_NO = 999
REV_AT_EPOCH   = 253
BSTAR          = .16351E-3
MEAN_MOTION_DOT = .24708E-3
MEAN_MOTION_DDOT = 0

CCSDS_OMM_VERS = 2.0
CREATION_DATE  = 
ORIGINATOR     = 

OBJECT_NAME    = STARLINK-36083
OBJECT_ID      = 2025-281K
CENTER_NAME    = EARTH
REF_FRAME      = TEME
TIME_SYSTEM    = UTC
MEAN_ELEMENT_THEORY = SGP/SGP4

EPOCH          = 2025-12-19T20:00:01.999008
MEAN_MOTION    = 15.75037317
ECCENTRICITY   = .0001584
INCLINATION    = 43.0007
RA_OF_ASC_NODE = 78.8752
ARG_OF_PERICENTER = 278.5782
MEAN_ANOMALY   = 19.4115

EPHEMERIS_TYPE = 0
CLASSIFICATION_TYPE = U
NORAD_CAT_ID   = 66857
ELEMENT_SET_NO = 999
REV_AT_EPOCH   = 253
BSTAR          = .61689E-4
MEAN_MOTION_DOT = .9008E-4
MEAN_MOTION_DDOT = 0

CCSDS_OMM_VERS = 2.0
CREATION_DATE  = 
ORIGINATOR     = 

OBJECT_NAME    = STARLINK-35118
OBJECT_ID      = 2025-281L
CENTER_NAME    = EARTH
REF_FRAME      = TEME
TIME_SYSTEM    = UTC
MEAN_ELEMENT_THEORY = SGP/SGP4

EPOCH          = 2025-12-19T20:00:01.999008
MEAN_MOTION    = 15.75061413
ECCENTRICITY   = .0001744
INCLINATION    = 43.0008
RA_OF_ASC_NODE = 78.8694
ARG_OF_PERICENTER = 271.6233
MEAN_ANOMALY   = 28.2836

EPHEMERIS_TYPE = 0
CLASSIFICATION_TYPE = U
NORAD_CAT_ID   = 66858
ELEMENT_SET_NO = 999
REV_AT_EPOCH   = 232
BSTAR          = -.12893E-3
MEAN_MOTION_DOT = -.20255E-3
MEAN_MOTION_DDOT = 0

CCSDS_OMM_VERS = 2.0
CREATION_DATE  = 
ORIGINATOR     = 

OBJECT_NAME    = STARLINK-35646
OBJECT_ID      = 2025-281M
CENTER_NAME    = EARTH
REF_FRAME      = TEME
TIME_SYSTEM    = UTC
MEAN_ELEMENT_THEORY = SGP/SGP4

EPOCH          = 2025-12-19T20:00:01.999008
MEAN_MOTION    = 15.75041663
ECCENTRICITY   = .0001721
INCLINATION    = 43.0014
RA_OF_ASC_NODE = 78.8657
ARG_OF_PERICENTER = 271.9845
MEAN_ANOMALY   = 29.8539

EPHEMERIS_TYPE = 0
CLASSIFICATION_TYPE = U
NORAD_CAT_ID   = 66859
ELEMENT_SET_NO = 999
REV_AT_EPOCH   = 253
BSTAR          = .4373E-4
MEAN_MOTION_DOT = .6245E-4
MEAN_MOTION_DDOT = 0

CCSDS_OMM_VERS = 2.0
CREATION_DATE  = 
ORIGINATOR     = 

OBJECT_NAME    = STARLINK-35987
OBJECT_ID      = 2025-281N
CENTER_NAME    = EARTH
REF_FRAME      = TEME
TIME_SYSTEM    = UTC
MEAN_ELEMENT_THEORY = SGP/SGP4

EPOCH          = 2025-12-19T20:00:01.999008
MEAN_MOTION    = 15.75047982
ECCENTRICITY   = .0001611
INCLINATION    = 43.0010
RA_OF_ASC_NODE = 78.8410
ARG_OF_PERICENTER = 270.9615
MEAN_ANOMALY   = 40.4356

EPHEMERIS_TYPE = 0
CLASSIFICATION_TYPE = U
NORAD_CAT_ID   = 66860
ELEMENT_SET_NO = 999
REV_AT_EPOCH   = 253
BSTAR          = .52909E-4
MEAN_MOTION_DOT = .766E-4
MEAN_MOTION_DDOT = 0

CCSDS_OMM_VERS = 2.0
CREATION_DATE  = 
ORIGINATOR     = 

OBJECT_NAME    = STARLINK-35991
OBJECT_ID      = 2025-281P
CENTER_NAME    = EARTH
REF_FRAME      = TEME
TIME_SYSTEM    = UTC
MEAN_ELEMENT_THEORY = SGP/SGP4

EPOCH          = 2025-12-19T20:00:01.999008
MEAN_MOTION    = 15.75045933
ECCENTRICITY   = .0001663
INCLINATION    = 43.0009
RA_OF_ASC_NODE = 78.8558
ARG_OF_PERICENTER = 274.9012
MEAN_ANOMALY   = 30.7491

EPHEMERIS_TYPE = 0
CLASSIFICATION_TYPE = U
NORAD_CAT_ID   = 66861
ELEMENT_SET_NO = 999
REV_AT_EPOCH   = 253
BSTAR          = .62384E-4
MEAN_MOTION_DOT = .9118E-4
MEAN_MOTION_DDOT = 0

CCSDS_OMM_VERS = 2.0
CREATION_DATE  = 
ORIGINATOR     = 

OBJECT_NAME    = STARLINK-35974
OBJECT_ID      = 2025-281Q
CENTER_NAME    = EARTH
REF_FRAME      = TEME
TIME_SYSTEM    = UTC
MEAN_ELEMENT_THEORY = SGP/SGP4

EPOCH          = 2025-12-19T20:00:01.999008
MEAN_MOTION    = 15.75042808
ECCENTRICITY   = .0001775
INCLINATION    = 43.0010
RA_OF_ASC_NODE = 78.8607
ARG_OF_PERICENTER = 275.4670
MEAN_ANOMALY   = 28.2706

EPHEMERIS_TYPE = 0
CLASSIFICATION_TYPE = U
NORAD_CAT_ID   = 66862
ELEMENT_SET_NO = 999
REV_AT_EPOCH   = 243
BSTAR          = .6614E-4
MEAN_MOTION_DOT = .9695E-4
MEAN_MOTION_DDOT = 0

CCSDS_OMM_VERS = 2.0
CREATION_DATE  = 
ORIGINATOR     = 

OBJECT_NAME    = STARLINK-36134
OBJECT_ID      = 2025-281R
CENTER_NAME    = EARTH
REF_FRAME      = TEME
TIME_SYSTEM    = UTC
MEAN_ELEMENT_THEORY = SGP/SGP4

EPOCH          = 2025-12-19T20:00:01.999008
MEAN_MOTION    = 15.75047580
ECCENTRICITY   = .0001645
INCLINATION    = 43.0014
RA_OF_ASC_NODE = 78.8514
ARG_OF_PERICENTER = 278.8254
MEAN_ANOMALY   = 28.7449

EPHEMERIS_TYPE = 0
CLASSIFICATION_TYPE = U
NORAD_CAT_ID   = 66863
ELEMENT_SET_NO = 999
REV_AT_EPOCH   = 253
BSTAR          = -.87619E-5
MEAN_MOTION_DOT = -.1824E-4
MEAN_MOTION_DDOT = 0

CCSDS_OMM_VERS = 2.0
CREATION_DATE  = 
ORIGINATOR     = 

OBJECT_NAME    = STARLINK-36070
OBJECT_ID      = 2025-281S
CENTER_NAME    = EARTH
REF_FRAME      = TEME
TIME_SYSTEM    = UTC
MEAN_ELEMENT_THEORY = SGP/SGP4

EPOCH          = 2025-12-19T20:00:01.999008
MEAN_MOTION    = 15.75030964
ECCENTRICITY   = .0001542
INCLINATION    = 43.0009
RA_OF_ASC_NODE = 78.8458
ARG_OF_PERICENTER = 284.3494
MEAN_ANOMALY   = 25.1438

EPHEMERIS_TYPE = 0
CLASSIFICATION_TYPE = U
NORAD_CAT_ID   = 66864
ELEMENT_SET_NO = 999
REV_AT_EPOCH   = 256
BSTAR          = .14454E-3
MEAN_MOTION_DOT = .21774E-3
MEAN_MOTION_DDOT = 0

CCSDS_OMM_VERS = 2.0
CREATION_DATE  = 
ORIGINATOR     = 

OBJECT_NAME    = STARLINK-36117
OBJECT_ID      = 2025-281T
CENTER_NAME    = EARTH
REF_FRAME      = TEME
TIME_SYSTEM    = UTC
MEAN_ELEMENT_THEORY = SGP/SGP4

EPOCH          = 2025-12-19T20:00:01.999008
MEAN_MOTION    = 15.75027464
ECCENTRICITY   = .0001631
INCLINATION    = 43.0010
RA_OF_ASC_NODE = 78.8368
ARG_OF_PERICENTER = 267.7955
MEAN_ANOMALY   = 45.5332

EPHEMERIS_TYPE = 0
CLASSIFICATION_TYPE = U
NORAD_CAT_ID   = 66865
ELEMENT_SET_NO = 999
REV_AT_EPOCH   = 253
BSTAR          = .23459E-3
MEAN_MOTION_DOT = .35692E-3
MEAN_MOTION_DDOT = 0

CCSDS_OMM_VERS = 2.0
CREATION_DATE  = 
ORIGINATOR     = 

OBJECT_NAME    = STARLINK-36126
OBJECT_ID      = 2025-281U
CENTER_NAME    = EARTH
REF_FRAME      = TEME
TIME_SYSTEM    = UTC
MEAN_ELEMENT_THEORY = SGP/SGP4

EPOCH          = 2025-12-19T20:00:01.999008
MEAN_MOTION    = 15.75019538
ECCENTRICITY   = .0001637
INCLINATION    = 43.0018
RA_OF_ASC_NODE = 78.8319
ARG_OF_PERICENTER = 269.5479
MEAN_ANOMALY   = 45.7052

EPHEMERIS_TYPE = 0
CLASSIFICATION_TYPE = U
NORAD_CAT_ID   = 66866
ELEMENT_SET_NO = 999
REV_AT_EPOCH   = 256
BSTAR          = .29217E-3
MEAN_MOTION_DOT = .44601E-3
MEAN_MOTION_DDOT = 0

