STARLINK-36090          
1 66855U 25281H   25353.83335647  .00004890  00000+0  34915-4 0  9991
2 66855  43.0008  78.8848 0001320 278.3060  15.8481 15.75043291  2413
STARLINK-36072          
1 66856U 25281J   25353.83335647  .00024708  00000+0  16351-3 0  9995
2 66856  43.0007  78.8801 0001646 274.4091  21.6635 15.75035231  2538
STARLINK-36083          
1 66857U 25281K   25353.83335647  .00009008  00000+0  61689-4 0  9997
2 66857  43.0007  78.8752 0001584 278.5782  19.4115 15.75037317  2532
STARLINK-35118          
1 66858U 25281L   25353.83335647 -.00020255  00000+0 -12893-3 0  9999
2 66858  43.0008  78.8694 0001744 271.6233  28.2836 15.75061413  2321
STARLINK-35646          
1 66859U 25281M   25353.83335647  .00006245  00000+0  43730-4 0  9996
2 66859  43.0014  78.8657 0001721 271.9845  29.8539 15.75041663  2530
STARLINK-35987          
1 66860U 25281N   25353.83335647  .00007660  00000+0  52909-4 0  9998
2 66860  43.0010  78.8410 0001611 270.9615  40.4356 15.75047982  2533
STARLINK-35991          
1 66861U 25281P   25353.83335647  .00009118  00000+0  62384-4 0  9997
2 66861  43.0009  78.8558 0001663 274.9012  30.7491 15.75045933  2533
STARLINK-35974          
1 66862U 25281Q   25353.83335647  .00009695  00000+0  66140-4 0  9992
2 66862  43.0010  78.8607 0001775 275.4670  28.2706 15.75042808  2439
STARLINK-36134          
1 66863U 25281R   25353.83335647 -.00001824  00000+0 -87619-5 0  9996
2 66863  43.0014  78.8514 0001645 278.8254  28.7449 15.75047580  2534
STARLINK-36070          
1 66864U 25281S   25353.83335647  .00021774  00000+0  14454-3 0  9996
2 66864  43.0009  78.8458 0001542 284.3494  25.1438 15.75030964  2560
STARLINK-36117          
1 66865U 25281T   25353.83335647  .00035692  00000+0  23459-3 0  9996
2 66865  43.0010  78.8368 0001631 267.7955  45.5332 15.75027464  2536
STARLINK-36126          
1 66866U 25281U   25353.83335647  .00044601  00000+0  29217-3 0  9995
2 66866  43.0018  78.8319 0001637 269.5479  45.7052 15.75019538  2565
